[{"OBJECT_NAME":"STARLINK-5471","OBJECT_ID":"2022-175J","EPOCH":"2026-03-09T07:44:07.895040","MEAN_MOTION":15.08852588,"ECCENTRICITY":0.00015855,"INCLINATION":53.2178,"RA_OF_ASC_NODE":45.7652,"ARG_OF_PERICENTER":85.7722,"MEAN_ANOMALY":274.3451,"EPHEMERIS_TYPE":0,"CLASSIFICATION_TYPE":"U","NORAD_CAT_ID":54766,"ELEMENT_SET_NO":999,"REV_AT_EPOCH":17986,"BSTAR":7.2230928e-5,"MEAN_MOTION_DOT":8.62e-6,"MEAN_MOTION_DDOT":0},{"OBJECT_NAME":"DMSP 5D-2 F11 DEB","OBJECT_ID":"1991-082AJ","EPOCH":"2026-03-09T06:39:32.486112","MEAN_MOTION":15.08629375,"ECCENTRICITY":0.00070318,"INCLINATION":98.5181,"RA_OF_ASC_NODE":189.4283,"ARG_OF_PERICENTER":237.8685,"MEAN_ANOMALY":152.6153,"EPHEMERIS_TYPE":0,"CLASSIFICATION_TYPE":"U","NORAD_CAT_ID":28321,"ELEMENT_SET_NO":999,"REV_AT_EPOCH":14288,"BSTAR":0.0082823802,"MEAN_MOTION_DOT":0.00131946,"MEAN_MOTION_DDOT":0}]
